{"type": "FeatureCollection", "features": [ {"type": "Feature", "properties": {"norad_id": 36664, "name": "FENGYUN 1C DEB", "group": "fengyun-1c-debris", "lat": -32.581657638381984, "lon": 30.660431273405933, "alt_km": 840.3601382377992, "timestamp": "2025-12-26T22:28:06.073239+00:00", "meta": {"OBJECT_NAME": "FENGYUN 1C DEB", "OBJECT_ID": "1999-025DYJ", "EPOCH": "2025-12-26T07:22:50.485728", "MEAN_MOTION": 14.17962762, "ECCENTRICITY": 0.0173406, "INCLINATION": 98.6032, "RA_OF_ASC_NODE": 24.499, "ARG_OF_PERICENTER": 60.8466, "MEAN_ANOMALY": 300.9939, "EPHEMERIS_TYPE": 0, "CLASSIFICATION_TYPE": "U", "NORAD_CAT_ID": 36664, "ELEMENT_SET_NO": 999, "REV_AT_EPOCH": 63943, "BSTAR": 9.6314e-05, "MEAN_MOTION_DOT": 1.87e-06, "MEAN_MOTION_DDOT": 0}, "tle": {"line1": "1 36664U 99025DYJ 25360.30752877  .00000187  00000+0  96314-4 0  9997", "line2": "2 36664  98.6032  24.4990 0173406  60.8466 300.9939 14.17962762639437"}}, "geometry": {"type": "Point", "coordinates": [30.660431273405933, -32.581657638381984]}}, {"type": "Feature", "properties": {"norad_id": 36668, "name": "FENGYUN 1C DEB", "group": "fengyun-1c-debris", "lat": -6.653240123478368, "lon": -170.1885491679921, "alt_km": 807.4524713884539, "timestamp": "2025-12-26T22:28:06.073249+00:00", "meta": {"OBJECT_NAME": "FENGYUN 1C DEB", "OBJECT_ID": "1999-025DYN", "EPOCH": "2025-12-25T06:34:05.412864", "MEAN_MOTION": 14.15422045, "ECCENTRICITY": 0.0051464, "INCLINATION": 98.6094, "RA_OF_ASC_NODE": 9.2188, "ARG_OF_PERICENTER": 190.1122, "MEAN_ANOMALY": 169.9022, "EPHEMERIS_TYPE": 0, "CLASSIFICATION_TYPE": "U", "NORAD_CAT_ID": 36668, "ELEMENT_SET_NO": 999, "REV_AT_EPOCH": 57595, "BSTAR": 0.00055657, "MEAN_MOTION_DOT": 1.058e-05, "MEAN_MOTION_DDOT": 0}, "tle": {"line1": "1 36668U 99025DYN 25359.27367376  .00001058  00000+0  55657-3 0  9993", "line2": "2 36668  98.6094   9.2188 0051464 190.1122 169.9022 14.15422045575959"}}, "geometry": {"type": "Point", "coordinates": [-170.1885491679921, -6.653240123478368]}}, {"type": "Feature", "properties": {"norad_id": 36676, "name": "FENGYUN 1C DEB", "group": "fengyun-1c-debris", "lat": -62.426305185824475, "lon": 63.64758652013591, "alt_km": 816.1902702245443, "timestamp": "2025-12-26T22:28:06.073260+00:00", "meta": {"OBJECT_NAME": "FENGYUN 1C DEB", "OBJECT_ID": "1999-025DYW", "EPOCH": "2025-12-12T12:03:08.237952", "MEAN_MOTION": 14.43199836, "ECCENTRICITY": 0.00955768, "INCLINATION": 98.7673, "RA_OF_ASC_NODE": 245.9859, "ARG_OF_PERICENTER": 132.3194, "MEAN_ANOMALY": 40.1509, "EPHEMERIS_TYPE": 0, "CLASSIFICATION_TYPE": "U", "NORAD_CAT_ID": 36676, "ELEMENT_SET_NO": 999, "REV_AT_EPOCH": 65062, "BSTAR": 0.00064689298, "MEAN_MOTION_DOT": 2.25e-05, "MEAN_MOTION_DDOT": 0}, "tle": {"line1": "1 36676U 99025DYW 25346.50217868  .00002250  00000+0  64689-3 0  9994", "line2": "2 36676  98.7673 245.9859 0095576 132.3194  40.1509 14.43199836650623"}}, "geometry": {"type": "Point", "coordinates": [63.64758652013591, -62.426305185824475]}}, {"type": "Feature", "properties": {"norad_id": 36679, "name": "FENGYUN 1C DEB", "group": "fengyun-1c-debris", "lat": -70.63362351384193, "lon": 150.41865248998363, "alt_km": 943.8896550136524, "timestamp": "2025-12-26T22:28:06.073271+00:00", "meta": {"OBJECT_NAME": "FENGYUN 1C DEB", "OBJECT_ID": "1999-025DYZ", "EPOCH": "2025-12-12T05:06:20.489760", "MEAN_MOTION": 14.04635854, "ECCENTRICITY": 0.00860329, "INCLINATION": 98.8358, "RA_OF_ASC_NODE": 342.3526, "ARG_OF_PERICENTER": 94.9778, "MEAN_ANOMALY": 266.1218, "EPHEMERIS_TYPE": 0, "CLASSIFICATION_TYPE": "U", "NORAD_CAT_ID": 36679, "ELEMENT_SET_NO": 999, "REV_AT_EPOCH": 24541, "BSTAR": 0.00093240851, "MEAN_MOTION_DOT": 1.499e-05, "MEAN_MOTION_DDOT": 0}, "tle": {"line1": "1 36679U 99025DYZ 25346.21273715  .00001499  00000+0  93241-3 0  9998", "line2": "2 36679  98.8358 342.3526 0086032  94.9778 266.1218 14.04635854245414"}}, "geometry": {"type": "Point", "coordinates": [150.41865248998363, -70.63362351384193]}}, {"type": "Feature", "properties": {"norad_id": 36680, "name": "FENGYUN 1C DEB", "group": "fengyun-1c-debris", "lat": -33.576370309859044, "lon": 166.82686773604192, "alt_km": 700.5757291321033, "timestamp": "2025-12-26T22:28:06.073281+00:00", "meta": {"OBJECT_NAME": "FENGYUN 1C DEB", "OBJECT_ID": "1999-025DZA", "EPOCH": "2025-12-26T06:17:26.158848", "MEAN_MOTION": 14.18659412, "ECCENTRICITY": 0.018876, "INCLINATION": 98.5493, "RA_OF_ASC_NODE": 351.9074, "ARG_OF_PERICENTER": 210.1448, "MEAN_ANOMALY": 162.8822, "EPHEMERIS_TYPE": 0, "CLASSIFICATION_TYPE": "U", "NORAD_CAT_ID": 36680, "ELEMENT_SET_NO": 999, "REV_AT_EPOCH": 64489, "BSTAR": 0.00038416, "MEAN_MOTION_DOT": 9.06e-06, "MEAN_MOTION_DDOT": 0}, "tle": {"line1": "1 36680U 99025DZA 25360.26210832  .00000906  00000+0  38416-3 0  9997", "line2": "2 36680  98.5493 351.9074 0188760 210.1448 162.8822 14.18659412644893"}}, "geometry": {"type": "Point", "coordinates": [166.82686773604192, -33.576370309859044]}}, {"type": "Feature", "properties": {"norad_id": 36681, "name": "FENGYUN 1C DEB", "group": "fengyun-1c-debris", "lat": -12.39105946035169, "lon": 1.0167550398773784, "alt_km": 837.6159847620302, "timestamp": "2025-12-26T22:28:06.073291+00:00", "meta": {"OBJECT_NAME": "FENGYUN 1C DEB", "OBJECT_ID": "1999-025DZB", "EPOCH": "2025-12-24T17:44:34.713888", "MEAN_MOTION": 14.10290553, "ECCENTRICITY": 0.00442192, "INCLINATION": 98.6983, "RA_OF_ASC_NODE": 356.9645, "ARG_OF_PERICENTER": 315.3394, "MEAN_ANOMALY": 44.4218, "EPHEMERIS_TYPE": 0, "CLASSIFICATION_TYPE": "U", "NORAD_CAT_ID": 36681, "ELEMENT_SET_NO": 999, "REV_AT_EPOCH": 72927, "BSTAR": 0.00058901121, "MEAN_MOTION_DOT": 1.011e-05, "MEAN_MOTION_DDOT": 0}, "tle": {"line1": "1 36681U 99025DZB 25358.73929067  .00001011  00000+0  58901-3 0  9993", "line2": "2 36681  98.6983 356.9645 0044219 315.3394  44.4218 14.10290553729275"}}, "geometry": {"type": "Point", "coordinates": [1.0167550398773784, -12.39105946035169]}}, {"type": "Feature", "properties": {"norad_id": 36682, "name": "FENGYUN 1C DEB", "group": "fengyun-1c-debris", "lat": -38.77097629230005, "lon": -90.02921363286895, "alt_km": 976.0208301162666, "timestamp": "2025-12-26T22:28:06.073301+00:00", "meta": {"OBJECT_NAME": "FENGYUN 1C DEB", "OBJECT_ID": "1999-025DZC", "EPOCH": "2025-12-24T04:03:46.568736", "MEAN_MOTION": 13.70158625, "ECCENTRICITY": 0.02326677, "INCLINATION": 98.4855, "RA_OF_ASC_NODE": 260.6406, "ARG_OF_PERICENTER": 246.7187, "MEAN_ANOMALY": 110.9319, "EPHEMERIS_TYPE": 0, "CLASSIFICATION_TYPE": "U", "NORAD_CAT_ID": 36682, "ELEMENT_SET_NO": 999, "REV_AT_EPOCH": 61549, "BSTAR": 0.0009036125, "MEAN_MOTION_DOT": 9.25e-06, "MEAN_MOTION_DDOT": 0}, "tle": {"line1": "1 36682U 99025DZC 25358.16928899  .00000925  00000+0  90361-3 0  9992", "line2": "2 36682  98.4855 260.6406 0232667 246.7187 110.9319 13.70158625615498"}}, "geometry": {"type": "Point", "coordinates": [-90.02921363286895, -38.77097629230005]}}, {"type": "Feature", "properties": {"norad_id": 36684, "name": "FENGYUN 1C DEB", "group": "fengyun-1c-debris", "lat": -12.994389850786453, "lon": -86.17506486136669, "alt_km": 587.0234012775982, "timestamp": "2025-12-26T22:28:06.073311+00:00", "meta": {"OBJECT_NAME": "FENGYUN 1C DEB", "OBJECT_ID": "1999-025DZE", "EPOCH": "2025-12-21T05:17:41.042688", "MEAN_MOTION": 14.97175814, "ECCENTRICITY": 0.0018018, "INCLINATION": 99.4575, "RA_OF_ASC_NODE": 89.1224, "ARG_OF_PERICENTER": 79.4116, "MEAN_ANOMALY": 280.9129, "EPHEMERIS_TYPE": 0, "CLASSIFICATION_TYPE": "U", "NORAD_CAT_ID": 36684, "ELEMENT_SET_NO": 999, "REV_AT_EPOCH": 66028, "BSTAR": 0.003525, "MEAN_MOTION_DOT": 0.00041029, "MEAN_MOTION_DDOT": 0}, "tle": {"line1": "1 36684U 99025DZE 25355.22061392  .00041029  00000+0  35250-2 0  9999", "line2": "2 36684  99.4575  89.1224 0018018  79.4116 280.9129 14.97175814660280"}}, "geometry": {"type": "Point", "coordinates": [-86.17506486136669, -12.994389850786453]}}, {"type": "Feature", "properties": {"norad_id": 36686, "name": "FENGYUN 1C DEB", "group": "fengyun-1c-debris", "lat": 34.121912865749124, "lon": 20.146335367927524, "alt_km": 688.026303817046, "timestamp": "2025-12-26T22:28:06.073322+00:00", "meta": {"OBJECT_NAME": "FENGYUN 1C DEB", "OBJECT_ID": "1999-025DZG", "EPOCH": "2025-12-24T19:25:41.479968", "MEAN_MOTION": 14.77343626, "ECCENTRICITY": 0.01046369, "INCLINATION": 99.0009, "RA_OF_ASC_NODE": 191.6088, "ARG_OF_PERICENTER": 15.7807, "MEAN_ANOMALY": 344.6619, "EPHEMERIS_TYPE": 0, "CLASSIFICATION_TYPE": "U", "NORAD_CAT_ID": 36686, "ELEMENT_SET_NO": 999, "REV_AT_EPOCH": 66030, "BSTAR": 0.00081992673, "MEAN_MOTION_DOT": 6.314e-05, "MEAN_MOTION_DDOT": 0}, "tle": {"line1": "1 36686U 99025DZG 25358.80950787  .00006314  00000+0  81993-3 0  9997", "line2": "2 36686  99.0009 191.6088 0104636  15.7807 344.6619 14.77343626660300"}}, "geometry": {"type": "Point", "coordinates": [20.146335367927524, 34.121912865749124]}}, {"type": "Feature", "properties": {"norad_id": 36687, "name": "FENGYUN 1C DEB", "group": "fengyun-1c-debris", "lat": -8.741983694315547, "lon": -94.54748160950071, "alt_km": 829.2953818485475, "timestamp": "2025-12-26T22:28:06.073332+00:00", "meta": {"OBJECT_NAME": "FENGYUN 1C DEB", "OBJECT_ID": "1999-025DZH", "EPOCH": "2025-12-17T23:51:08.993376", "MEAN_MOTION": 14.04533718, "ECCENTRICITY": 0.00903258, "INCLINATION": 98.7154, "RA_OF_ASC_NODE": 78.2194, "ARG_OF_PERICENTER": 250.4808, "MEAN_ANOMALY": 108.6587, "EPHEMERIS_TYPE": 0, "CLASSIFICATION_TYPE": "U", "NORAD_CAT_ID": 36687, "ELEMENT_SET_NO": 999, "REV_AT_EPOCH": 62796, "BSTAR": 6.2205267e-05, "MEAN_MOTION_DOT": 6e-07, "MEAN_MOTION_DDOT": 0}, "tle": {"line1": "1 36687U 99025DZH 25351.99385409  .00000060  00000+0  62205-4 0  9992", "line2": "2 36687  98.7154  78.2194 0090325 250.4808 108.6587 14.04533718627964"}}, "geometry": {"type": "Point", "coordinates": [-94.54748160950071, -8.741983694315547]}}]}